{"type": "FeatureCollection", "features": [ {"type": "Feature", "properties": {"norad_id": 66379, "name": "SHIYAN-32 03", "group": "last-30-days", "lat": 35.53970059733541, "lon": -121.43397068250479, "alt_km": 423.4240737748005, "timestamp": "2025-12-06T20:37:54.811483+00:00", "meta": {"OBJECT_NAME": "SHIYAN-32 03", "OBJECT_ID": "2025-255D", "EPOCH": "2025-12-06T17:19:17.306976", "MEAN_MOTION": 15.42818211, "ECCENTRICITY": 0.0015506, "INCLINATION": 52.9952, "RA_OF_ASC_NODE": 206.6219, "ARG_OF_PERICENTER": 24.3949, "MEAN_ANOMALY": 335.7786, "EPHEMERIS_TYPE": 0, "CLASSIFICATION_TYPE": "U", "NORAD_CAT_ID": 66379, "ELEMENT_SET_NO": 999, "REV_AT_EPOCH": 430, "BSTAR": 0.00055754, "MEAN_MOTION_DOT": 0.00024567, "MEAN_MOTION_DDOT": 0}, "tle": {"line1": "1 66379U 25255D   25340.72172809  .00024567  00000+0  55754-3 0  9992", "line2": "2 66379  52.9952 206.6219 0015506  24.3949 335.7786 15.42818211  4308"}}, "geometry": {"type": "Point", "coordinates": [-121.43397068250479, 35.53970059733541]}}, {"type": "Feature", "properties": {"norad_id": 66380, "name": "STARLINK-35139", "group": "last-30-days", "lat": -36.33146216832982, "lon": -101.09881266706542, "alt_km": 452.72476699951403, "timestamp": "2025-12-06T20:37:54.811494+00:00", "meta": {"OBJECT_NAME": "STARLINK-35139", "OBJECT_ID": "2025-257A", "EPOCH": "2025-12-06T14:36:25.957728", "MEAN_MOTION": 15.39648227, "ECCENTRICITY": 0.0002853, "INCLINATION": 53.16, "RA_OF_ASC_NODE": 293.5445, "ARG_OF_PERICENTER": 92.1489, "MEAN_ANOMALY": 267.9843, "EPHEMERIS_TYPE": 0, "CLASSIFICATION_TYPE": "U", "NORAD_CAT_ID": 66380, "ELEMENT_SET_NO": 999, "REV_AT_EPOCH": 536, "BSTAR": 0.0021600826, "MEAN_MOTION_DOT": 0.00087081, "MEAN_MOTION_DDOT": 0}, "tle": {"line1": "1 66380U 25257A   25340.60863377  .00087081  00000+0  21601-2 0  9993", "line2": "2 66380  53.1600 293.5445 0002853  92.1489 267.9843 15.39648227  5363"}}, "geometry": {"type": "Point", "coordinates": [-101.09881266706542, -36.33146216832982]}}, {"type": "Feature", "properties": {"norad_id": 66381, "name": "STARLINK-35158", "group": "last-30-days", "lat": -35.032607717388665, "lon": -99.35260592032964, "alt_km": 451.65289447975556, "timestamp": "2025-12-06T20:37:54.811506+00:00", "meta": {"OBJECT_NAME": "STARLINK-35158", "OBJECT_ID": "2025-257B", "EPOCH": "2025-12-06T03:41:36.801888", "MEAN_MOTION": 15.39611903, "ECCENTRICITY": 0.00011063, "INCLINATION": 53.16, "RA_OF_ASC_NODE": 295.6823, "ARG_OF_PERICENTER": 95.9912, "MEAN_ANOMALY": 264.1218, "EPHEMERIS_TYPE": 0, "CLASSIFICATION_TYPE": "U", "NORAD_CAT_ID": 66381, "ELEMENT_SET_NO": 999, "REV_AT_EPOCH": 535, "BSTAR": 0.002056989, "MEAN_MOTION_DOT": 0.00082754, "MEAN_MOTION_DDOT": 0}, "tle": {"line1": "1 66381U 25257B   25340.15389817  .00082754  00000+0  20570-2 0  9992", "line2": "2 66381  53.1600 295.6823 0001106  95.9912 264.1218 15.39611903  5354"}}, "geometry": {"type": "Point", "coordinates": [-99.35260592032964, -35.032607717388665]}}, {"type": "Feature", "properties": {"norad_id": 66382, "name": "STARLINK-35639", "group": "last-30-days", "lat": -17.239862571221956, "lon": -81.14591475259468, "alt_km": 449.3934714547722, "timestamp": "2025-12-06T20:37:54.811520+00:00", "meta": {"OBJECT_NAME": "STARLINK-35639", "OBJECT_ID": "2025-257C", "EPOCH": "2025-12-06T06:42:20.908224", "MEAN_MOTION": 15.39708498, "ECCENTRICITY": 5.663e-05, "INCLINATION": 53.1609, "RA_OF_ASC_NODE": 295.0421, "ARG_OF_PERICENTER": 256.004, "MEAN_ANOMALY": 104.0902, "EPHEMERIS_TYPE": 0, "CLASSIFICATION_TYPE": "U", "NORAD_CAT_ID": 66382, "ELEMENT_SET_NO": 999, "REV_AT_EPOCH": 537, "BSTAR": 0.0025441918, "MEAN_MOTION_DOT": 0.00103052, "MEAN_MOTION_DDOT": 0}, "tle": {"line1": "1 66382U 25257C   25340.27940866  .00103052  00000+0  25442-2 0  9991", "line2": "2 66382  53.1609 295.0421 0000566 256.0040 104.0902 15.39708498  5373"}}, "geometry": {"type": "Point", "coordinates": [-81.14591475259468, -17.239862571221956]}}, {"type": "Feature", "properties": {"norad_id": 66383, "name": "STARLINK-35690", "group": "last-30-days", "lat": 2.9594172173482884, "lon": -65.52230438038049, "alt_km": 447.65735487897655, "timestamp": "2025-12-06T20:37:54.811531+00:00", "meta": {"OBJECT_NAME": "STARLINK-35690", "OBJECT_ID": "2025-257D", "EPOCH": "2025-12-06T14:00:01.999872", "MEAN_MOTION": 15.39558062, "ECCENTRICITY": 0.00013362, "INCLINATION": 53.1611, "RA_OF_ASC_NODE": 293.5587, "ARG_OF_PERICENTER": 79.1423, "MEAN_ANOMALY": 192.4006, "EPHEMERIS_TYPE": 0, "CLASSIFICATION_TYPE": "U", "NORAD_CAT_ID": 66383, "ELEMENT_SET_NO": 999, "REV_AT_EPOCH": 550, "BSTAR": 0.00077538501, "MEAN_MOTION_DOT": 0.00030677, "MEAN_MOTION_DDOT": 0}, "tle": {"line1": "1 66383U 25257D   25340.58335648  .00030677  00000+0  77539-3 0  9999", "line2": "2 66383  53.1611 293.5587 0001336  79.1423 192.4006 15.39558062  5509"}}, "geometry": {"type": "Point", "coordinates": [-65.52230438038049, 2.9594172173482884]}}, {"type": "Feature", "properties": {"norad_id": 66384, "name": "STARLINK-35662", "group": "last-30-days", "lat": 4.430435060959615, "lon": -64.41630061559475, "alt_km": 447.4524544329488, "timestamp": "2025-12-06T20:37:54.811542+00:00", "meta": {"OBJECT_NAME": "STARLINK-35662", "OBJECT_ID": "2025-257E", "EPOCH": "2025-12-06T14:00:01.999872", "MEAN_MOTION": 15.39688753, "ECCENTRICITY": 0.00011833, "INCLINATION": 53.1613, "RA_OF_ASC_NODE": 293.5561, "ARG_OF_PERICENTER": 86.1796, "MEAN_ANOMALY": 187.1216, "EPHEMERIS_TYPE": 0, "CLASSIFICATION_TYPE": "U", "NORAD_CAT_ID": 66384, "ELEMENT_SET_NO": 999, "REV_AT_EPOCH": 550, "BSTAR": -0.0037537524, "MEAN_MOTION_DOT": -0.00148002, "MEAN_MOTION_DDOT": 0}, "tle": {"line1": "1 66384U 25257E   25340.58335648 -.00148002  00000+0 -37538-2 0  9998", "line2": "2 66384  53.1613 293.5561 0001183  86.1796 187.1216 15.39688753  5500"}}, "geometry": {"type": "Point", "coordinates": [-64.41630061559475, 4.430435060959615]}}, {"type": "Feature", "properties": {"norad_id": 66385, "name": "STARLINK-35659", "group": "last-30-days", "lat": -15.984533161549447, "lon": -80.09634976858834, "alt_km": 449.76612591310914, "timestamp": "2025-12-06T20:37:54.811553+00:00", "meta": {"OBJECT_NAME": "STARLINK-35659", "OBJECT_ID": "2025-257F", "EPOCH": "2025-12-06T06:41:52.581984", "MEAN_MOTION": 15.39630174, "ECCENTRICITY": 0.00013732, "INCLINATION": 53.1611, "RA_OF_ASC_NODE": 295.0411, "ARG_OF_PERICENTER": 72.9424, "MEAN_ANOMALY": 287.1731, "EPHEMERIS_TYPE": 0, "CLASSIFICATION_TYPE": "U", "NORAD_CAT_ID": 66385, "ELEMENT_SET_NO": 999, "REV_AT_EPOCH": 537, "BSTAR": 0.0016658118, "MEAN_MOTION_DOT": 0.0006684, "MEAN_MOTION_DDOT": 0}, "tle": {"line1": "1 66385U 25257F   25340.27908081  .00066840  00000+0  16658-2 0  9999", "line2": "2 66385  53.1611 295.0411 0001373  72.9424 287.1731 15.39630174  5374"}}, "geometry": {"type": "Point", "coordinates": [-80.09634976858834, -15.984533161549447]}}, {"type": "Feature", "properties": {"norad_id": 66386, "name": "STARLINK-35651", "group": "last-30-days", "lat": 23.190684672416566, "lon": -49.06044995912232, "alt_km": 444.3450788993723, "timestamp": "2025-12-06T20:37:54.811563+00:00", "meta": {"OBJECT_NAME": "STARLINK-35651", "OBJECT_ID": "2025-257G", "EPOCH": "2025-12-06T14:00:01.999872", "MEAN_MOTION": 15.39630338, "ECCENTRICITY": 0.00012174, "INCLINATION": 53.1608, "RA_OF_ASC_NODE": 293.5078, "ARG_OF_PERICENTER": 86.3877, "MEAN_ANOMALY": 210.8786, "EPHEMERIS_TYPE": 0, "CLASSIFICATION_TYPE": "U", "NORAD_CAT_ID": 66386, "ELEMENT_SET_NO": 999, "REV_AT_EPOCH": 550, "BSTAR": -0.0020409721, "MEAN_MOTION_DOT": -0.000812, "MEAN_MOTION_DDOT": 0}, "tle": {"line1": "1 66386U 25257G   25340.58335648 -.00081200  00000+0 -20410-2 0  9997", "line2": "2 66386  53.1608 293.5078 0001217  86.3877 210.8786 15.39630338  5501"}}, "geometry": {"type": "Point", "coordinates": [-49.06044995912232, 23.190684672416566]}}, {"type": "Feature", "properties": {"norad_id": 66387, "name": "STARLINK-35661", "group": "last-30-days", "lat": 24.56791602747818, "lon": -47.7547603151503, "alt_km": 443.92249336156965, "timestamp": "2025-12-06T20:37:54.811573+00:00", "meta": {"OBJECT_NAME": "STARLINK-35661", "OBJECT_ID": "2025-257H", "EPOCH": "2025-12-06T14:00:01.999872", "MEAN_MOTION": 15.39661844, "ECCENTRICITY": 0.00016751, "INCLINATION": 53.1608, "RA_OF_ASC_NODE": 293.5043, "ARG_OF_PERICENTER": 88.3573, "MEAN_ANOMALY": 210.7151, "EPHEMERIS_TYPE": 0, "CLASSIFICATION_TYPE": "U", "NORAD_CAT_ID": 66387, "ELEMENT_SET_NO": 999, "REV_AT_EPOCH": 550, "BSTAR": -0.0029477117, "MEAN_MOTION_DOT": -0.00116683, "MEAN_MOTION_DDOT": 0}, "tle": {"line1": "1 66387U 25257H   25340.58335648 -.00116683  00000+0 -29477-2 0  9994", "line2": "2 66387  53.1608 293.5043 0001675  88.3573 210.7151 15.39661844  5508"}}, "geometry": {"type": "Point", "coordinates": [-47.7547603151503, 24.56791602747818]}}, {"type": "Feature", "properties": {"norad_id": 66388, "name": "STARLINK-35647", "group": "last-30-days", "lat": 41.13199584633672, "lon": -26.94509482872694, "alt_km": 441.13489041503726, "timestamp": "2025-12-06T20:37:54.811584+00:00", "meta": {"OBJECT_NAME": "STARLINK-35647", "OBJECT_ID": "2025-257J", "EPOCH": "2025-12-06T14:00:01.999872", "MEAN_MOTION": 15.39727978, "ECCENTRICITY": 0.00014833, "INCLINATION": 53.1603, "RA_OF_ASC_NODE": 293.4566, "ARG_OF_PERICENTER": 92.8954, "MEAN_ANOMALY": 230.1093, "EPHEMERIS_TYPE": 0, "CLASSIFICATION_TYPE": "U", "NORAD_CAT_ID": 66388, "ELEMENT_SET_NO": 999, "REV_AT_EPOCH": 550, "BSTAR": -0.006780548, "MEAN_MOTION_DOT": -0.00263404, "MEAN_MOTION_DDOT": 0}, "tle": {"line1": "1 66388U 25257J   25340.58335648 -.00263404  00000+0 -67805-2 0  9996", "line2": "2 66388  53.1603 293.4566 0001483  92.8954 230.1093 15.39727978  5505"}}, "geometry": {"type": "Point", "coordinates": [-26.94509482872694, 41.13199584633672]}}]}